start=new Date('2022-09-17T00:00:00.000Z').valueOf();
sats=[{"TLE_LINE1":"1 47658U 21012AQ  22259.81545311  .00006782  00000-0  47355-3 0  9994","TIME_SYSTEM":"UTC","RA_OF_ASC_NODE":"12.3172","PERIAPSIS":"546.258","ARG_OF_PERICENTER":"76.9479","ECCENTRICITY":"0.00013060","DECAY_DATE":null,"OBJECT_TYPE":"PAYLOAD","SEMIMAJOR_AXIS":"6925.297","MEAN_ELEMENT_THEORY":"SGP4","ELEMENT_SET_NO":"999","RCS_SIZE":"LARGE","MEAN_ANOMALY":"283.1655","PERIOD":"95.591","NORAD_CAT_ID":"47658","OBJECT_ID":"2021-012AQ","REV_AT_EPOCH":"8860","MEAN_MOTION_DDOT":"0.0000000000000","MEAN_MOTION_DOT":"0.00006782","APOAPSIS":"548.067","SITE":"AFETR","TLE_LINE2":"2 47658  53.0546  12.3172 0001306  76.9479 283.1655 15.06416720 88607","CENTER_NAME":"EARTH","OBJECT_NAME":"STARLINK-2042","CLASSIFICATION_TYPE":"U","BSTAR":"0.00047355000000","EPHEMERIS_TYPE":"0","INCLINATION":"53.0546","GP_ID":"212747074","REF_FRAME":"TEME","LAUNCH_DATE":"2021-02-16","FILE":"3575787","MEAN_MOTION":"15.06416720","EPOCH":"2022-09-16T19:34:15.148704","COUNTRY_CODE":"US"},{"MEAN_MOTION_DOT":"0.00000531","APOAPSIS":"548.120","TLE_LINE2":"2 47659  53.0528 252.4964 0001328 105.5772 254.5364 15.06404324 89734","SITE":"AFETR","CENTER_NAME":"EARTH","OBJECT_NAME":"STARLINK-2043","CLASSIFICATION_TYPE":"U","EPHEMERIS_TYPE":"0","BSTAR":"0.00005450000000","INCLINATION":"53.0528","GP_ID":"212723419","LAUNCH_DATE":"2021-02-16","REF_FRAME":"TEME","MEAN_MOTION":"15.06404324","FILE":"3575647","EPOCH":"2022-09-16T18:35:52.437408","COUNTRY_CODE":"US","TLE_LINE1":"1 47659U 21012AR  22259.77491247  .00000531  00000-0  54500-4 0  9995","TIME_SYSTEM":"UTC","RA_OF_ASC_NODE":"252.4964","PERIAPSIS":"546.281","ARG_OF_PERICENTER":"105.5772","ECCENTRICITY":"0.00013280","OBJECT_TYPE":"PAYLOAD","DECAY_DATE":null,"SEMIMAJOR_AXIS":"6925.335","MEAN_ELEMENT_THEORY":"SGP4","ELEMENT_SET_NO":"999","RCS_SIZE":"LARGE","NORAD_CAT_ID":"47659","MEAN_ANOMALY":"254.5364","PERIOD":"95.592","OBJECT_ID":"2021-012AR","REV_AT_EPOCH":"8973","MEAN_MOTION_DDOT":"0.0000000000000"},{"CLASSIFICATION_TYPE":"U","SITE":"AFETR","TLE_LINE2":"2 47660  53.0519 244.5253 0001462  72.2370 287.8779 15.06397412 90327","CENTER_NAME":"EARTH","OBJECT_NAME":"STARLINK-2044","APOAPSIS":"548.234","MEAN_MOTION_DOT":"0.00000205","COUNTRY_CODE":"US","EPOCH":"2022-09-16T11:06:09.668160","FILE":"3575604","MEAN_MOTION":"15.06397412","REF_FRAME":"TEME","LAUNCH_DATE":"2021-02-16","GP_ID":"212717273","INCLINATION":"53.0519","BSTAR":"0.00003263900000","EPHEMERIS_TYPE":"0","MEAN_ELEMENT_THEORY":"SGP4","DECAY_DATE":null,"OBJECT_TYPE":"PAYLOAD","SEMIMAJOR_AXIS":"6925.356","ARG_OF_PERICENTER":"72.2370","ECCENTRICITY":"0.00014620","PERIAPSIS":"546.209","RA_OF_ASC_NODE":"244.5253","TIME_SYSTEM":"UTC","TLE_LINE1":"1 47660U 21012AS  22259.46261190  .00000205  00000-0  32639-4 0  9992","REV_AT_EPOCH":"9032","MEAN_MOTION_DDOT":"0.0000000000000","OBJECT_ID":"2021-012AS","PERIOD":"95.592","MEAN_ANOMALY":"287.8779","NORAD_CAT_ID":"47660","RCS_SIZE":"LARGE","ELEMENT_SET_NO":"999"},{"ELEMENT_SET_NO":"999","RCS_SIZE":"LARGE","NORAD_CAT_ID":"47661","PERIOD":"95.592","MEAN_ANOMALY":"291.6181","OBJECT_ID":"2021-012AT","MEAN_MOTION_DDOT":"0.0000000000000","REV_AT_EPOCH":"8881","TLE_LINE1":"1 47661U 21012AT  22259.58140866  .00001181  00000-0  98164-4 0  9991","RA_OF_ASC_NODE":"353.3641","TIME_SYSTEM":"UTC","PERIAPSIS":"546.275","ARG_OF_PERICENTER":"68.4954","ECCENTRICITY":"0.00013650","OBJECT_TYPE":"PAYLOAD","DECAY_DATE":null,"SEMIMAJOR_AXIS":"6925.355","MEAN_ELEMENT_THEORY":"SGP4","EPHEMERIS_TYPE":"0","BSTAR":"0.00009816400000","INCLINATION":"53.0562","GP_ID":"212747324","LAUNCH_DATE":"2021-02-16","REF_FRAME":"TEME","MEAN_MOTION":"15.06397893","FILE":"3575787","EPOCH":"2022-09-16T13:57:13.708224","COUNTRY_CODE":"US","MEAN_MOTION_DOT":"0.00001181","APOAPSIS":"548.165","TLE_LINE2":"2 47661  53.0562 353.3641 0001365  68.4954 291.6181 15.06397893 88817","SITE":"AFETR","OBJECT_NAME":"STARLINK-2051","CENTER_NAME":"EARTH","CLASSIFICATION_TYPE":"U"},{"PERIAPSIS":"546.148","RA_OF_ASC_NODE":"352.8621","TIME_SYSTEM":"UTC","TLE_LINE1":"1 47662U 21012AU  22259.69471546  .00003430  00000-0  24894-3 0  9993","MEAN_ELEMENT_THEORY":"SGP4","DECAY_DATE":null,"SEMIMAJOR_AXIS":"6925.310","OBJECT_TYPE":"PAYLOAD","ARG_OF_PERICENTER":"75.3420","ECCENTRICITY":"0.00014830","RCS_SIZE":"LARGE","ELEMENT_SET_NO":"999","MEAN_MOTION_DDOT":"0.0000000000000","REV_AT_EPOCH":"8885","OBJECT_ID":"2021-012AU","MEAN_ANOMALY":"284.7734","PERIOD":"95.591","NORAD_CAT_ID":"47662","APOAPSIS":"548.202","MEAN_MOTION_DOT":"0.00003430","CLASSIFICATION_TYPE":"U","TLE_LINE2":"2 47662  53.0550 352.8621 0001483  75.3420 284.7734 15.06412637 88858","OBJECT_NAME":"STARLINK-2052","SITE":"AFETR","CENTER_NAME":"EARTH","REF_FRAME":"TEME","LAUNCH_DATE":"2021-02-16","GP_ID":"212747574","INCLINATION":"53.0550","BSTAR":"0.00024894000000","EPHEMERIS_TYPE":"0","COUNTRY_CODE":"US","EPOCH":"2022-09-16T16:40:23.415744","FILE":"3575787","MEAN_MOTION":"15.06412637"},{"CLASSIFICATION_TYPE":"U","TLE_LINE2":"2 47663  53.0538 272.8713 0001374  65.4162 294.6970 15.06401147 89970","OBJECT_NAME":"STARLINK-2053","SITE":"AFETR","CENTER_NAME":"EARTH","APOAPSIS":"548.162","MEAN_MOTION_DOT":"0.00000774","COUNTRY_CODE":"US","EPOCH":"2022-09-16T18:12:03.037536","MEAN_MOTION":"15.06401147","FILE":"3575787","LAUNCH_DATE":"2021-02-16","REF_FRAME":"TEME","GP_ID":"212747826","INCLINATION":"53.0538","EPHEMERIS_TYPE":"0","BSTAR":"0.00007085200000","MEAN_ELEMENT_THEORY":"SGP4","DECAY_DATE":null,"SEMIMAJOR_AXIS":"6925.345","OBJECT_TYPE":"PAYLOAD","ARG_OF_PERICENTER":"65.4162","ECCENTRICITY":"0.00013740","PERIAPSIS":"546.259","RA_OF_ASC_NODE":"272.8713","TIME_SYSTEM":"UTC","TLE_LINE1":"1 47663U 21012AV  22259.75836849  .00000774  00000-0  70852-4 0  9996","REV_AT_EPOCH":"8997","MEAN_MOTION_DDOT":"0.0000000000000","OBJECT_ID":"2021-012AV","NORAD_CAT_ID":"47663","PERIOD":"95.592","MEAN_ANOMALY":"294.6970","RCS_SIZE":"LARGE","ELEMENT_SET_NO":"999"},{"BSTAR":"0.00018798000000","EPHEMERIS_TYPE":"0","INCLINATION":"53.0555","GP_ID":"212717773","LAUNCH_DATE":"2021-02-16","REF_FRAME":"TEME","FILE":"3575604","MEAN_MOTION":"15.06399218","EPOCH":"2022-09-16T13:30:41.320800","COUNTRY_CODE":"US","MEAN_MOTION_DOT":"0.00002520","APOAPSIS":"548.209","TLE_LINE2":"2 47664  53.0555 353.4544 0001434  84.3087 275.8065 15.06399218 88836","SITE":"AFETR","CENTER_NAME":"EARTH","OBJECT_NAME":"STARLINK-2054","CLASSIFICATION_TYPE":"U","ELEMENT_SET_NO":"999","RCS_SIZE":"LARGE","MEAN_ANOMALY":"275.8065","PERIOD":"95.592","NORAD_CAT_ID":"47664","OBJECT_ID":"2021-012AW","REV_AT_EPOCH":"8883","MEAN_MOTION_DDOT":"0.0000000000000","TLE_LINE1":"1 47664U 21012AW  22259.56297825  .00002520  00000-0  18798-3 0  9992","RA_OF_ASC_NODE":"353.4544","TIME_SYSTEM":"UTC","PERIAPSIS":"546.223","ARG_OF_PERICENTER":"84.3087","ECCENTRICITY":"0.00014340","DECAY_DATE":null,"SEMIMAJOR_AXIS":"6925.351","OBJECT_TYPE":"PAYLOAD","MEAN_ELEMENT_THEORY":"SGP4"},{"MEAN_MOTION_DDOT":"0.0000000000000","REV_AT_EPOCH":"8891","NORAD_CAT_ID":"47665","PERIOD":"95.592","MEAN_ANOMALY":"268.3115","OBJECT_ID":"2021-012AX","ELEMENT_SET_NO":"999","RCS_SIZE":"LARGE","MEAN_ELEMENT_THEORY":"SGP4","ARG_OF_PERICENTER":"91.8040","ECCENTRICITY":"0.00014450","DECAY_DATE":null,"SEMIMAJOR_AXIS":"6925.340","OBJECT_TYPE":"PAYLOAD","RA_OF_ASC_NODE":"347.9919","TIME_SYSTEM":"UTC","PERIAPSIS":"546.204","TLE_LINE1":"1 47665U 21012AX  22259.67586977  .00004487  00000-0  31993-3 0  9990","COUNTRY_CODE":"US","MEAN_MOTION":"15.06402764","FILE":"3575787","EPOCH":"2022-09-16T16:13:15.148128","GP_ID":"212746825","REF_FRAME":"TEME","LAUNCH_DATE":"2021-02-16","EPHEMERIS_TYPE":"0","BSTAR":"0.00031993000000","INCLINATION":"53.0559","CLASSIFICATION_TYPE":"U","TLE_LINE2":"2 47665  53.0559 347.9919 0001445  91.8040 268.3115 15.06402764 88912","SITE":"AFETR","CENTER_NAME":"EARTH","OBJECT_NAME":"STARLINK-2056","APOAPSIS":"548.206","MEAN_MOTION_DOT":"0.00004487"},{"MEAN_MOTION_DDOT":"0.0000000000000","REV_AT_EPOCH":"8890","OBJECT_ID":"2021-012AY","MEAN_ANOMALY":"287.3710","PERIOD":"95.592","NORAD_CAT_ID":"47666","RCS_SIZE":"LARGE","ELEMENT_SET_NO":"999","MEAN_ELEMENT_THEORY":"SGP4","DECAY_DATE":null,"SEMIMAJOR_AXIS":"6925.355","OBJECT_TYPE":"PAYLOAD","ARG_OF_PERICENTER":"72.7445","ECCENTRICITY":"0.00015170","PERIAPSIS":"546.169","TIME_SYSTEM":"UTC","RA_OF_ASC_NODE":"348.6054","TLE_LINE1":"1 47666U 21012AY  22259.60587291  .00001198  00000-0  99339-4 0  9999","COUNTRY_CODE":"US","EPOCH":"2022-09-16T14:32:27.419424","FILE":"3575787","MEAN_MOTION":"15.06397903","LAUNCH_DATE":"2021-02-16","REF_FRAME":"TEME","GP_ID":"212747075","INCLINATION":"53.0545","BSTAR":"0.00009933900000","EPHEMERIS_TYPE":"0","CLASSIFICATION_TYPE":"U","SITE":"AFETR","TLE_LINE2":"2 47666  53.0545 348.6054 0001517  72.7445 287.3710 15.06397903 88902","OBJECT_NAME":"STARLINK-2057","CENTER_NAME":"EARTH","APOAPSIS":"548.271","MEAN_MOTION_DOT":"0.00001198"},{"ELEMENT_SET_NO":"999","RCS_SIZE":"LARGE","MEAN_MOTION_DDOT":"0.0000000000000","REV_AT_EPOCH":"8855","MEAN_ANOMALY":"285.6850","PERIOD":"95.592","NORAD_CAT_ID":"47667","OBJECT_ID":"2021-012AZ","TIME_SYSTEM":"UTC","RA_OF_ASC_NODE":"12.7112","PERIAPSIS":"546.245","TLE_LINE1":"1 47667U 21012AZ  22259.72699835  .00000619  00000-0  60454-4 0  9994","MEAN_ELEMENT_THEORY":"SGP4","ARG_OF_PERICENTER":"74.4295","ECCENTRICITY":"0.00014140","DECAY_DATE":null,"SEMIMAJOR_AXIS":"6925.359","OBJECT_TYPE":"PAYLOAD","GP_ID":"212748326","LAUNCH_DATE":"2021-02-16","REF_FRAME":"TEME","BSTAR":"0.00006045400000","EPHEMERIS_TYPE":"0","INCLINATION":"53.0551","COUNTRY_CODE":"US","FILE":"3575787","MEAN_MOTION":"15.06396636","EPOCH":"2022-09-16T17:26:52.657440","APOAPSIS":"548.203","MEAN_MOTION_DOT":"0.00000619","CLASSIFICATION_TYPE":"U","TLE_LINE2":"2 47667  53.0551  12.7112 0001414  74.4295 285.6850 15.06396636 88551","SITE":"AFETR","OBJECT_NAME":"STARLINK-2058","CENTER_NAME":"EARTH"}];
